NORAD_CAT_ID,OBJECT_NAME,OBJECT_TYPE,EPOCH,MEAN_MOTION,ECCENTRICITY,INCLINATION,RA_OF_ASC_NODE,ARG_OF_PERICENTER,MEAN_ANOMALY,BSTAR,MEAN_MOTION_DOT,MEAN_MOTION_DDOT,TLE_LINE0,TLE_LINE1,TLE_LINE2,SEMIMAJOR_AXIS,PERIOD,APOGEE,PERIGEE,DECAYED
54772.0,STARLINK-5452,PAYLOAD,2024-06-29 23:24:38,15.08834,0.0001185,53.218,282.2918,104.7714,255.3409,-1.2087e-06,-3.07e-06,0.0,0 STARLINK-5452,1 54772U 22175Q   24181.97544494 -.00000307  00000-0 -12087-5 0  9999,2 54772  53.2180 282.2918 0001185 104.7714 255.3409 15.08834000 84714,6917.899,95.438,540.583,538.944,0.0
54772.0,STARLINK-5452,PAYLOAD,2024-06-30 13:43:06,15.08846411,0.000134,53.2174,279.6199,118.0748,242.0379,0.00014148,1.965e-05,0.0,0 STARLINK-5452,1 54772U 22175Q   24182.57159961  .00001965  00000-0  14148-3 0  9994,2 54772  53.2174 279.6199 0001340 118.0748 242.0379 15.08846411 84804,6917.861,95.437,540.653,538.799,0.0
54772.0,STARLINK-5452,PAYLOAD,2024-06-30 23:15:24,15.08854941,0.0001389,53.2181,277.8343,111.0033,249.1107,0.000198,2.866e-05,0.0,0 STARLINK-5452,1 54772U 22175Q   24182.96903146  .00002866  00000-0  19800-3 0  9990,2 54772  53.2181 277.8343 0001389 111.0033 249.1107 15.08854941 84866,6917.835,95.437,540.661,538.739,0.0
54772.0,STARLINK-5452,PAYLOAD,2024-07-01 13:33:54,15.08826586,0.0001288,53.2162,275.1544,110.7069,249.4061,0.00014722,2.055e-05,0.0,0 STARLINK-5452,1 54772U 22175Q   24183.56520898  .00002055  00000-0  14722-3 0  9994,2 54772  53.2162 275.1544 0001288 110.7069 249.4061 15.08826586 84958,6917.921,95.438,540.677,538.895,0.0
54772.0,STARLINK-5452,PAYLOAD,2024-07-01 15:09:16,15.08837067,0.0001135,53.2149,274.8575,133.6563,226.4523,0.00026035,3.858e-05,0.0,0 STARLINK-5452,1 54772U 22175Q   24183.63144285  .00003858  00000-0  26035-3 0  9996,2 54772  53.2149 274.8575 0001135 133.6563 226.4523 15.08837067 84962,6917.889,95.438,540.54,538.969,0.0
54772.0,STARLINK-5452,PAYLOAD,2024-07-01 23:06:11,15.08847275,0.000108,53.2161,273.3692,97.9853,262.1262,0.00023514,3.457e-05,0.0,0 STARLINK-5452,1 54772U 22175Q   24183.96263824  .00003457  00000-0  23514-3 0  9997,2 54772  53.2161 273.3692 0001080  97.9853 262.1262 15.08847275 85019,6917.858,95.437,540.47,538.976,0.0
54772.0,STARLINK-5452,PAYLOAD,2024-07-02 13:24:40,15.08837476,0.0001066,53.2157,270.6943,102.361,257.7501,-2.9288e-05,-7.54e-06,0.0,0 STARLINK-5452,1 54772U 22175Q   24184.55880475 -.00000754  00000-0 -29288-4 0  9994,2 54772  53.2157 270.6943 0001066 102.3610 257.7501 15.08837476 85107,6917.888,95.438,540.491,539.016,0.0
54772.0,STARLINK-5452,PAYLOAD,2024-07-03 14:50:50,15.08843532,9.61e-05,53.2152,265.935,109.0478,251.0619,0.00024969,3.689e-05,0.0,0 STARLINK-5452,1 54772U 22175Q   24185.61864542  .00003689  00000-0  24969-3 0  9997,2 54772  53.2152 265.9350 0000961 109.0478 251.0619 15.08843532 85264,6917.87,95.437,540.399,539.07,0.0
54772.0,STARLINK-5452,PAYLOAD,2024-07-04 14:41:37,15.0884745,0.0001194,53.2163,261.4756,88.8877,271.2252,0.00026279,3.898e-05,0.0,0 STARLINK-5452,1 54772U 22175Q   24186.61224512  .00003898  00000-0  26279-3 0  9993,2 54772  53.2163 261.4756 0001194  88.8877 271.2252 15.08847450 87579,6917.858,95.437,540.549,538.897,0.0
54772.0,STARLINK-5452,PAYLOAD,2024-07-04 22:38:33,15.08853524,0.0001202,53.2164,259.989,89.6827,270.4303,0.00036855,5.585e-05,0.0,0 STARLINK-5452,1 54772U 22175Q   24186.94344219  .00005585  00000-0  36855-3 0  9992,2 54772  53.2164 259.9890 0001202  89.6827 270.4303 15.08853524 87628,6917.839,95.437,540.536,538.873,0.0
54772.0,STARLINK-5452,PAYLOAD,2024-07-05 11:21:38,15.08844766,0.0001082,53.216,257.6105,90.7559,269.3557,0.00011811,1.593e-05,0.0,0 STARLINK-5452,1 54772U 22175Q   24187.47336386  .00001593  00000-0  11811-3 0  9997,2 54772  53.2160 257.6105 0001082  90.7559 269.3557 15.08844766 85544,6917.866,95.437,540.479,538.982,0.0
54772.0,STARLINK-5452,PAYLOAD,2024-07-06 11:12:25,15.0883731,0.0001217,53.2163,253.1506,88.0422,272.0709,-6.6075e-06,-3.93e-06,0.0,0 STARLINK-5452,1 54772U 22175Q   24188.46696696 -.00000393  00000-0 -66075-5 0  9993,2 54772  53.2163 253.1506 0001217  88.0422 272.0709 15.08837310 85695,6917.889,95.438,540.596,538.912,0.0
54772.0,STARLINK-5452,PAYLOAD,2024-07-06 14:23:12,15.08837635,0.0001209,53.2163,252.5558,88.4104,271.7027,7.8141e-06,-1.63e-06,0.0,0 STARLINK-5452,1 54772U 22175Q   24188.59944748 -.00000163  00000-0  78141-5 0  9992,2 54772  53.2163 252.5558 0001209  88.4104 271.7027 15.08837635 87878,6917.888,95.438,540.589,538.916,0.0
54772.0,STARLINK-5452,PAYLOAD,2024-07-06 20:44:44,15.08843023,0.0001187,53.2163,251.367,87.6876,272.4252,5.28e-05,5.53e-06,0.0,0 STARLINK-5452,1 54772U 22175Q   24188.86440465  .00000553  00000-0  52800-4 0  9994,2 54772  53.2163 251.3670 0001187  87.6876 272.4252 15.08843023 87913,6917.871,95.437,540.557,538.915,0.0
54772.0,STARLINK-5452,PAYLOAD,2024-07-07 11:03:13,15.08838434,0.0001285,53.2162,248.6933,99.8164,260.2973,2.6928e-05,1.41e-06,0.0,0 STARLINK-5452,1 54772U 22175Q   24189.46056804  .00000141  00000-0  26928-4 0  9996,2 54772  53.2162 248.6933 0001285  99.8164 260.2973 15.08838434 88003,6917.885,95.438,540.639,538.861,0.0
54772.0,STARLINK-5452,PAYLOAD,2024-07-08 10:54:00,15.08839007,0.000137,53.2166,244.2313,92.2166,267.8983,0.00013308,1.831e-05,0.0,0 STARLINK-5452,1 54772U 22175Q   24190.45416887  .00001831  00000-0  13308-3 0  9992,2 54772  53.2166 244.2313 0001370  92.2166 267.8983 15.08839007 85991,6917.883,95.438,540.696,538.801,0.0
54772.0,STARLINK-5452,PAYLOAD,2024-07-08 20:26:18,15.08848296,0.0001318,53.2161,242.4453,85.7321,274.3822,0.00020566,2.987e-05,0.0,0 STARLINK-5452,1 54772U 22175Q   24190.85160347  .00002987  00000-0  20566-3 0  9990,2 54772  53.2161 242.4453 0001318  85.7321 274.3822 15.08848296 88216,6917.855,95.437,540.632,538.808,0.0
54772.0,STARLINK-5452,PAYLOAD,2024-07-09 12:20:10,15.08837946,0.0001348,53.2152,239.4714,82.7322,277.3824,2.3274e-05,8.2e-07,0.0,0 STARLINK-5452,1 54772U 22175Q   24191.51400948  .00000082  00000-0  23274-4 0  9992,2 54772  53.2152 239.4714 0001348  82.7322 277.3824 15.08837946 86159,6917.887,95.438,540.684,538.819,0.0
54772.0,STARLINK-5452,PAYLOAD,2024-07-10 12:10:57,15.08840213,0.0001391,53.2154,235.0098,76.8023,283.3125,4.4097e-05,4.14e-06,0.0,0 STARLINK-5452,1 54772U 22175Q   24192.50761088  .00000414  00000-0  44097-4 0  9992,2 54772  53.2154 235.0098 0001391  76.8023 283.3125 15.08840213 88466,6917.88,95.438,540.707,538.782,0.0
54772.0,STARLINK-5452,PAYLOAD,2024-07-11 12:01:44,15.08846273,0.0001416,53.2155,230.5482,79.8759,280.2393,0.00022099,3.231e-05,0.0,0 STARLINK-5452,1 54772U 22175Q   24193.50120919  .00003231  00000-0  22099-3 0  9992,2 54772  53.2155 230.5482 0001416  79.8759 280.2393 15.08846273 88613,6917.861,95.437,540.706,538.747,0.0
54772.0,STARLINK-5452,PAYLOAD,2024-07-11 19:58:39,15.08849507,0.0001326,53.2152,229.0624,87.247,272.8674,0.00025664,3.8e-05,0.0,0 STARLINK-5452,1 54772U 22175Q   24193.83240668  .00003800  00000-0  25664-3 0  9995,2 54772  53.2152 229.0624 0001326  87.2470 272.8674 15.08849507 86502,6917.851,95.437,540.634,538.799,0.0
54772.0,STARLINK-5452,PAYLOAD,2024-07-12 05:30:59,15.08841534,0.0001729,53.2166,227.2757,119.9172,240.1992,0.00012166,1.649e-05,0.0,0 STARLINK-5452,1 54772U 22175Q   24194.22985005  .00001649  00000-0  12166-3 0  9992,2 54772  53.2166 227.2757 0001729 119.9172 240.1992 15.08841534 86562,6917.876,95.437,540.937,538.545,0.0
54772.0,STARLINK-5452,PAYLOAD,2024-07-12 11:52:31,15.08837434,0.0001575,53.2163,226.0884,105.5281,254.5885,4.2249e-05,3.84e-06,0.0,0 STARLINK-5452,1 54772U 22175Q   24194.49481322  .00000384  00000-0  42249-4 0  9995,2 54772  53.2163 226.0884 0001575 105.5281 254.5885 15.08837434 88766,6917.888,95.438,540.843,538.664,0.0
54772.0,STARLINK-5452,PAYLOAD,2024-07-12 21:24:50,15.08829832,0.0001477,53.217,224.305,104.3819,255.7337,0.00028461,4.243e-05,0.0,0 STARLINK-5452,1 54772U 22175Q   24194.89225620  .00004243  00000-0  28461-3 0  9993,2 54772  53.2170 224.3050 0001477 104.3819 255.7337 15.08829832 86660,6917.911,95.438,540.798,538.755,0.0
54772.0,STARLINK-5452,PAYLOAD,2024-07-13 05:21:46,15.08844283,0.0001518,53.2168,222.8185,101.0871,259.0292,4.9889e-05,5.06e-06,0.0,0 STARLINK-5452,1 54772U 22175Q   24195.22344953  .00000506  00000-0  49889-4 0  9998,2 54772  53.2168 222.8185 0001518 101.0871 259.0292 15.08844283 86717,6917.867,95.437,540.782,538.682,0.0
54772.0,STARLINK-5452,PAYLOAD,2024-07-13 11:43:18,15.08845646,0.0001453,53.2163,221.6299,96.3481,263.7677,4.4406e-05,4.19e-06,0.0,0 STARLINK-5452,1 54772U 22175Q   24195.48840811  .00000419  00000-0  44406-4 0  9993,2 54772  53.2163 221.6299 0001453  96.3481 263.7677 15.08845646 88913,6917.863,95.437,540.733,538.723,0.0
54772.0,STARLINK-5452,PAYLOAD,2024-07-14 02:01:47,15.08835908,0.000133,53.2154,218.9526,93.5396,266.5748,0.00010594,1.398e-05,0.0,0 STARLINK-5452,1 54772U 22175Q   24196.08457268  .00001398  00000-0  10594-3 0  9997,2 54772  53.2154 218.9526 0001330  93.5396 266.5748 15.08835908 86843,6917.893,95.438,540.678,538.838,0.0
54772.0,STARLINK-5452,PAYLOAD,2024-07-14 08:23:19,15.08833441,0.0001313,53.2156,217.7631,93.3052,266.809,7.9824e-05,9.83e-06,0.0,0 STARLINK-5452,1 54772U 22175Q   24196.34953594  .00000983  00000-0  79824-4 0  9990,2 54772  53.2156 217.7631 0001313  93.3052 266.8090 15.08833441 89045,6917.9,95.438,540.674,538.857,0.0
54772.0,STARLINK-5452,PAYLOAD,2024-07-14 17:55:38,15.08838483,0.000126,53.2153,215.9783,91.4075,268.7061,7.2643e-05,8.68e-06,0.0,0 STARLINK-5452,1 54772U 22175Q   24196.74697364  .00000868  00000-0  72643-4 0  9998,2 54772  53.2153 215.9783 0001260  91.4075 268.7061 15.08838483 89102,6917.885,95.438,540.622,538.878,0.0
54772.0,STARLINK-5452,PAYLOAD,2024-07-15 05:03:20,15.08838424,0.0001397,53.2165,213.8972,92.6281,267.4871,4.7383e-05,4.66e-06,0.0,0 STARLINK-5452,1 54772U 22175Q   24197.21065566  .00000466  00000-0  47383-4 0  9991,2 54772  53.2165 213.8972 0001397  92.6281 267.4871 15.08838424 87013,6917.885,95.438,540.717,538.784,0.0
